{
  "type": "FeatureCollection",
  "features": [
    {
      "type": "Feature",
      "properties": {
        "norad_id": 51444,
        "name": "CSG-2",
        "group": "resource",
        "lat": 44.416049200509136,
        "lon": -4.628045916416222,
        "alt_km": 618.0802317317311,
        "timestamp": "2025-12-12T05:47:28.429819+00:00",
        "meta_object_name": "CSG-2",
        "meta_object_id": "2022-008A",
        "meta_epoch": "2025-12-12T00:19:25.519584",
        "meta_mean_motion": 14.82165088,
        "meta_eccentricity": 0.00015391,
        "meta_inclination": 97.8808,
        "meta_ra_of_asc_node": 167.3475,
        "meta_arg_of_pericenter": 83.9415,
        "meta_mean_anomaly": 276.1973,
        "meta_ephemeris_type": 0,
        "meta_classification_type": "U",
        "meta_norad_cat_id": 51444,
        "meta_element_set_no": 999,
        "meta_rev_at_epoch": 20886,
        "meta_bstar": 0.0001906229,
        "meta_mean_motion_dot": 1.466e-05,
        "meta_mean_motion_ddot": 0,
        "tle_line1": "1 51444U 22008A   25346.01348981  .00001466  00000+0  19062-3 0  9991",
        "tle_line2": "2 51444  97.8808 167.3475 0001539  83.9415 276.1973 14.82165088208863"
      },
      "geometry": {
        "type": "Point",
        "coordinates": [
          -4.628045916416222,
          44.416049200509136
        ]
      }
    },
    {
      "type": "Feature",
      "properties": {
        "norad_id": 52912,
        "name": "GAOFEN-12 03",
        "group": "resource",
        "lat": 55.20810173600382,
        "lon": -137.84786376717224,
        "alt_km": 623.7900161349398,
        "timestamp": "2025-12-12T05:47:28.429830+00:00",
        "meta_object_name": "GAOFEN-12 03",
        "meta_object_id": "2022-069A",
        "meta_epoch": "2025-12-11T23:02:49.068096",
        "meta_mean_motion": 14.79606586,
        "meta_eccentricity": 0.00022026,
        "meta_inclination": 97.8478,
        "meta_ra_of_asc_node": 233.3275,
        "meta_arg_of_pericenter": 62.8782,
        "meta_mean_anomaly": 297.2654,
        "meta_ephemeris_type": 0,
        "meta_classification_type": "U",
        "meta_norad_cat_id": 52912,
        "meta_element_set_no": 999,
        "meta_rev_at_epoch": 18692,
        "meta_bstar": 0.00029039225,
        "meta_mean_motion_dot": 2.126e-05,
        "meta_mean_motion_ddot": 0,
        "tle_line1": "1 52912U 22069A   25345.96029014  .00002126  00000+0  29039-3 0  9994",
        "tle_line2": "2 52912  97.8478 233.3275 0002202  62.8782 297.2654 14.79606586186921"
      },
      "geometry": {
        "type": "Point",
        "coordinates": [
          -137.84786376717224,
          55.20810173600382
        ]
      }
    },
    {
      "type": "Feature",
      "properties": {
        "norad_id": 54754,
        "name": "SWOT",
        "group": "resource",
        "lat": 5.959186093297264,
        "lon": 106.34778382551343,
        "alt_km": 895.0108927848732,
        "timestamp": "2025-12-12T05:47:28.429840+00:00",
        "meta_object_name": "SWOT",
        "meta_object_id": "2022-173A",
        "meta_epoch": "2025-12-11T23:49:09.406272",
        "meta_mean_motion": 14.00174518,
        "meta_eccentricity": 3.347e-05,
        "meta_inclination": 77.6106,
        "meta_ra_of_asc_node": 287.9983,
        "meta_arg_of_pericenter": 113.3645,
        "meta_mean_anomaly": 246.7542,
        "meta_ephemeris_type": 0,
        "meta_classification_type": "U",
        "meta_norad_cat_id": 54754,
        "meta_element_set_no": 999,
        "meta_rev_at_epoch": 15295,
        "meta_bstar": 4.4055579e-05,
        "meta_mean_motion_dot": 6.2e-07,
        "meta_mean_motion_ddot": 0,
        "tle_line1": "1 54754U 22173A   25345.99246998  .00000062  00000+0  44056-4 0  9995",
        "tle_line2": "2 54754  77.6106 287.9983 0000334 113.3645 246.7542 14.00174518152956"
      },
      "geometry": {
        "type": "Point",
        "coordinates": [
          106.34778382551343,
          5.959186093297264
        ]
      }
    },
    {
      "type": "Feature",
      "properties": {
        "norad_id": 57654,
        "name": "GAOFEN-12 04",
        "group": "resource",
        "lat": -45.03400674191067,
        "lon": 74.00292536731985,
        "alt_km": 637.8463934854672,
        "timestamp": "2025-12-12T05:47:28.429850+00:00",
        "meta_object_name": "GAOFEN-12 04",
        "meta_object_id": "2023-123A",
        "meta_epoch": "2025-12-11T23:54:23.304384",
        "meta_mean_motion": 14.79697278,
        "meta_eccentricity": 0.00013347,
        "meta_inclination": 97.9116,
        "meta_ra_of_asc_node": 261.7646,
        "meta_arg_of_pericenter": 74.3989,
        "meta_mean_anomaly": 285.737,
        "meta_ephemeris_type": 0,
        "meta_classification_type": "U",
        "meta_norad_cat_id": 57654,
        "meta_element_set_no": 999,
        "meta_rev_at_epoch": 12494,
        "meta_bstar": 0.00033293012,
        "meta_mean_motion_dot": 2.449e-05,
        "meta_mean_motion_ddot": 0,
        "tle_line1": "1 57654U 23123A   25345.99610306  .00002449  00000+0  33293-3 0  9992",
        "tle_line2": "2 57654  97.9116 261.7646 0001334  74.3989 285.7370 14.79697278124947"
      },
      "geometry": {
        "type": "Point",
        "coordinates": [
          74.00292536731985,
          -45.03400674191067
        ]
      }
    },
    {
      "type": "Feature",
      "properties": {
        "norad_id": 59065,
        "name": "PARS 1",
        "group": "resource",
        "lat": 27.148599072247496,
        "lon": 141.018521946255,
        "alt_km": 440.656336163539,
        "timestamp": "2025-12-12T05:47:28.429860+00:00",
        "meta_object_name": "PARS 1",
        "meta_object_id": "2024-039Q",
        "meta_epoch": "2025-12-12T00:27:26.417664",
        "meta_mean_motion": 15.40947844,
        "meta_eccentricity": 0.0012598,
        "meta_inclination": 97.4636,
        "meta_ra_of_asc_node": 316.9368,
        "meta_arg_of_pericenter": 74.3977,
        "meta_mean_anomaly": 285.8659,
        "meta_ephemeris_type": 0,
        "meta_classification_type": "U",
        "meta_norad_cat_id": 59065,
        "meta_element_set_no": 999,
        "meta_rev_at_epoch": 9977,
        "meta_bstar": 0.0004018737,
        "meta_mean_motion_dot": 0.00016515,
        "meta_mean_motion_ddot": 0,
        "tle_line1": "1 59065U 24039Q   25346.01905576  .00016515  00000+0  40187-3 0  9996",
        "tle_line2": "2 59065  97.4636 316.9368 0012598  74.3977 285.8659 15.40947844 99771"
      },
      "geometry": {
        "type": "Point",
        "coordinates": [
          141.018521946255,
          27.148599072247496
        ]
      }
    },
    {
      "type": "Feature",
      "properties": {
        "norad_id": 59371,
        "name": "RESURS-P 4",
        "group": "resource",
        "lat": -49.20883456545524,
        "lon": -58.92971253176264,
        "alt_km": 476.75463861295975,
        "timestamp": "2025-12-12T05:47:28.429870+00:00",
        "meta_object_name": "RESURS-P 4",
        "meta_object_id": "2024-061A",
        "meta_epoch": "2025-12-11T23:44:16.537920",
        "meta_mean_motion": 15.32075702,
        "meta_eccentricity": 0.00015631,
        "meta_inclination": 97.254,
        "meta_ra_of_asc_node": 292.3346,
        "meta_arg_of_pericenter": 52.3854,
        "meta_mean_anomaly": 307.753,
        "meta_ephemeris_type": 0,
        "meta_classification_type": "U",
        "meta_norad_cat_id": 59371,
        "meta_element_set_no": 999,
        "meta_rev_at_epoch": 9509,
        "meta_bstar": 0.00019982347,
        "meta_mean_motion_dot": 6.112e-05,
        "meta_mean_motion_ddot": 0,
        "tle_line1": "1 59371U 24061A   25345.98908030  .00006112  00000+0  19982-3 0  9995",
        "tle_line2": "2 59371  97.2540 292.3346 0001563  52.3854 307.7530 15.32075702 95095"
      },
      "geometry": {
        "type": "Point",
        "coordinates": [
          -58.92971253176264,
          -49.20883456545524
        ]
      }
    },
    {
      "type": "Feature",
      "properties": {
        "norad_id": 59625,
        "name": "LEGION 1",
        "group": "resource",
        "lat": -23.19615528668668,
        "lon": -122.36203919838874,
        "alt_km": 523.325221371967,
        "timestamp": "2025-12-12T05:47:28.429881+00:00",
        "meta_object_name": "LEGION 1",
        "meta_object_id": "2024-081A",
        "meta_epoch": "2025-12-12T00:08:46.735008",
        "meta_mean_motion": 15.16469285,
        "meta_eccentricity": 0.00039832,
        "meta_inclination": 97.5212,
        "meta_ra_of_asc_node": 60.6504,
        "meta_arg_of_pericenter": 321.9003,
        "meta_mean_anomaly": 38.1948,
        "meta_ephemeris_type": 0,
        "meta_classification_type": "U",
        "meta_norad_cat_id": 59625,
        "meta_element_set_no": 999,
        "meta_rev_at_epoch": 8916,
        "meta_bstar": 0.00039653198,
        "meta_mean_motion_dot": 7.654e-05,
        "meta_mean_motion_ddot": 0,
        "tle_line1": "1 59625U 24081A   25346.00609647  .00007654  00000+0  39653-3 0  9994",
        "tle_line2": "2 59625  97.5212  60.6504 0003983 321.9003  38.1948 15.16469285 89161"
      },
      "geometry": {
        "type": "Point",
        "coordinates": [
          -122.36203919838874,
          -23.19615528668668
        ]
      }
    }
  ]
}